{
  "type": "FeatureCollection",
  "features": [
    {
      "type": "Feature",
      "properties": {
        "norad_id": 66543,
        "name": "STARLINK-35315",
        "group": "last-30-days",
        "lat": -11.174605656494464,
        "lon": 20.39584175981402,
        "alt_km": 415.5301318874717,
        "timestamp": "2025-12-16T08:59:41.906568+00:00",
        "meta_object_name": "STARLINK-35315",
        "meta_object_id": "2025-265AD",
        "meta_epoch": "2025-12-15T20:41:50.592768",
        "meta_mean_motion": 15.50477986,
        "meta_eccentricity": 0.00021484,
        "meta_inclination": 43.002,
        "meta_ra_of_asc_node": 35.6314,
        "meta_arg_of_pericenter": 30.7647,
        "meta_mean_anomaly": 329.3339,
        "meta_ephemeris_type": 0,
        "meta_classification_type": "U",
        "meta_norad_cat_id": 66543,
        "meta_element_set_no": 999,
        "meta_rev_at_epoch": 424,
        "meta_bstar": -0.00014518767,
        "meta_mean_motion_dot": -8.82e-05,
        "meta_mean_motion_ddot": 0,
        "tle_line1": "1 66543U 25265AD  25349.86239112 -.00008820  00000+0 -14519-3 0  9991",
        "tle_line2": "2 66543  43.0020  35.6314 0002148  30.7647 329.3339 15.50477986  4243"
      },
      "geometry": {
        "type": "Point",
        "coordinates": [
          20.39584175981402,
          -11.174605656494464
        ]
      }
    },
    {
      "type": "Feature",
      "properties": {
        "norad_id": 66544,
        "name": "STARLINK-35728",
        "group": "last-30-days",
        "lat": -9.540339120750588,
        "lon": 22.23715469832907,
        "alt_km": 415.71620215432176,
        "timestamp": "2025-12-16T08:59:41.906578+00:00",
        "meta_object_name": "STARLINK-35728",
        "meta_object_id": "2025-265AE",
        "meta_epoch": "2025-12-15T20:41:17.799648",
        "meta_mean_motion": 15.50601173,
        "meta_eccentricity": 4.478e-05,
        "meta_inclination": 42.9999,
        "meta_ra_of_asc_node": 35.6282,
        "meta_arg_of_pericenter": 237.2435,
        "meta_mean_anomaly": 122.8382,
        "meta_ephemeris_type": 0,
        "meta_classification_type": "U",
        "meta_norad_cat_id": 66544,
        "meta_element_set_no": 999,
        "meta_rev_at_epoch": 424,
        "meta_bstar": 0.001442183,
        "meta_mean_motion_dot": 0.00085258,
        "meta_mean_motion_ddot": 0,
        "tle_line1": "1 66544U 25265AE  25349.86201157  .00085258  00000+0  14422-2 0  9990",
        "tle_line2": "2 66544  42.9999  35.6282 0000447 237.2435 122.8382 15.50601173  4241"
      },
      "geometry": {
        "type": "Point",
        "coordinates": [
          22.23715469832907,
          -9.540339120750588
        ]
      }
    },
    {
      "type": "Feature",
      "properties": {
        "norad_id": 66545,
        "name": "SHIJIAN-30A",
        "group": "last-30-days",
        "lat": -36.550649681481886,
        "lon": -79.88650936543424,
        "alt_km": 518.7779602795645,
        "timestamp": "2025-12-16T08:59:41.906589+00:00",
        "meta_object_name": "SHIJIAN-30A",
        "meta_object_id": "2025-266A",
        "meta_epoch": "2025-12-15T22:07:59.092608",
        "meta_mean_motion": 15.15523423,
        "meta_eccentricity": 0.00129552,
        "meta_inclination": 51.7985,
        "meta_ra_of_asc_node": 317.9531,
        "meta_arg_of_pericenter": 7.8645,
        "meta_mean_anomaly": 352.2532,
        "meta_ephemeris_type": 0,
        "meta_classification_type": "U",
        "meta_norad_cat_id": 66545,
        "meta_element_set_no": 999,
        "meta_rev_at_epoch": 406,
        "meta_bstar": 0.00049503684,
        "meta_mean_motion_dot": 9.217e-05,
        "meta_mean_motion_ddot": 0,
        "tle_line1": "1 66545U 25266A   25349.92221172  .00009217  00000+0  49504-3 0  9999",
        "tle_line2": "2 66545  51.7985 317.9531 0012955   7.8645 352.2532 15.15523423  4067"
      },
      "geometry": {
        "type": "Point",
        "coordinates": [
          -79.88650936543424,
          -36.550649681481886
        ]
      }
    },
    {
      "type": "Feature",
      "properties": {
        "norad_id": 66546,
        "name": "SHIJIAN-30B",
        "group": "last-30-days",
        "lat": -40.544179742341115,
        "lon": -86.51095385507288,
        "alt_km": 520.9931080293572,
        "timestamp": "2025-12-16T08:59:41.906600+00:00",
        "meta_object_name": "SHIJIAN-30B",
        "meta_object_id": "2025-266B",
        "meta_epoch": "2025-12-15T22:09:42.453792",
        "meta_mean_motion": 15.15499199,
        "meta_eccentricity": 0.00106876,
        "meta_inclination": 51.7968,
        "meta_ra_of_asc_node": 317.9569,
        "meta_arg_of_pericenter": 11.2109,
        "meta_mean_anomaly": 348.9103,
        "meta_ephemeris_type": 0,
        "meta_classification_type": "U",
        "meta_norad_cat_id": 66546,
        "meta_element_set_no": 999,
        "meta_rev_at_epoch": 406,
        "meta_bstar": 0.00056304427,
        "meta_mean_motion_dot": 0.00010515,
        "meta_mean_motion_ddot": 0,
        "tle_line1": "1 66546U 25266B   25349.92340803  .00010515  00000+0  56304-3 0  9992",
        "tle_line2": "2 66546  51.7968 317.9569 0010687  11.2109 348.9103 15.15499199  4062"
      },
      "geometry": {
        "type": "Point",
        "coordinates": [
          -86.51095385507288,
          -40.544179742341115
        ]
      }
    },
    {
      "type": "Feature",
      "properties": {
        "norad_id": 66547,
        "name": "SHIJIAN-30C",
        "group": "last-30-days",
        "lat": -42.18893408835739,
        "lon": -89.69635269460903,
        "alt_km": 520.3302372610879,
        "timestamp": "2025-12-16T08:59:41.906610+00:00",
        "meta_object_name": "SHIJIAN-30C",
        "meta_object_id": "2025-266C",
        "meta_epoch": "2025-12-15T22:10:26.784768",
        "meta_mean_motion": 15.15445439,
        "meta_eccentricity": 0.00115408,
        "meta_inclination": 51.7979,
        "meta_ra_of_asc_node": 317.9621,
        "meta_arg_of_pericenter": 2.9011,
        "meta_mean_anomaly": 357.203,
        "meta_ephemeris_type": 0,
        "meta_classification_type": "U",
        "meta_norad_cat_id": 66547,
        "meta_element_set_no": 999,
        "meta_rev_at_epoch": 406,
        "meta_bstar": 0.00050021352,
        "meta_mean_motion_dot": 9.293e-05,
        "meta_mean_motion_ddot": 0,
        "tle_line1": "1 66547U 25266C   25349.92392112  .00009293  00000+0  50021-3 0  9994",
        "tle_line2": "2 66547  51.7979 317.9621 0011540   2.9011 357.2030 15.15445439  4062"
      },
      "geometry": {
        "type": "Point",
        "coordinates": [
          -89.69635269460903,
          -42.18893408835739
        ]
      }
    },
    {
      "type": "Feature",
      "properties": {
        "norad_id": 66548,
        "name": "CZ-2C R/B",
        "group": "last-30-days",
        "lat": -51.082462737900855,
        "lon": -121.15430811642047,
        "alt_km": 482.93010662508823,
        "timestamp": "2025-12-16T08:59:41.906621+00:00",
        "meta_object_name": "CZ-2C R/B",
        "meta_object_id": "2025-266D",
        "meta_epoch": "2025-12-15T22:22:44.003136",
        "meta_mean_motion": 15.30247578,
        "meta_eccentricity": 0.00837773,
        "meta_inclination": 52.0544,
        "meta_ra_of_asc_node": 316.0681,
        "meta_arg_of_pericenter": 184.0842,
        "meta_mean_anomaly": 175.947,
        "meta_ephemeris_type": 0,
        "meta_classification_type": "U",
        "meta_norad_cat_id": 66548,
        "meta_element_set_no": 999,
        "meta_rev_at_epoch": 410,
        "meta_bstar": 0.00026490742,
        "meta_mean_motion_dot": 8.357e-05,
        "meta_mean_motion_ddot": 0,
        "tle_line1": "1 66548U 25266D   25349.93245374  .00008357  00000+0  26491-3 0  9997",
        "tle_line2": "2 66548  52.0544 316.0681 0083777 184.0842 175.9470 15.30247578  4105"
      },
      "geometry": {
        "type": "Point",
        "coordinates": [
          -121.15430811642047,
          -51.082462737900855
        ]
      }
    },
    {
      "type": "Feature",
      "properties": {
        "norad_id": 66549,
        "name": "SHIJIAN-28",
        "group": "last-30-days",
        "lat": 4.4312450411479825,
        "lon": -23.085668598866373,
        "alt_km": 35784.70712377368,
        "timestamp": "2025-12-16T08:59:41.906635+00:00",
        "meta_object_name": "SHIJIAN-28",
        "meta_object_id": "2025-277A",
        "meta_epoch": "2025-12-15T23:02:20.004864",
        "meta_mean_motion": 1.00270828,
        "meta_eccentricity": 9.378e-05,
        "meta_inclination": 5.0105,
        "meta_ra_of_asc_node": 274.906,
        "meta_arg_of_pericenter": 135.1892,
        "meta_mean_anomaly": 137.198,
        "meta_ephemeris_type": 0,
        "meta_classification_type": "U",
        "meta_norad_cat_id": 66549,
        "meta_element_set_no": 999,
        "meta_rev_at_epoch": 31,
        "meta_bstar": 0,
        "meta_mean_motion_dot": -3.34e-06,
        "meta_mean_motion_ddot": 0,
        "tle_line1": "1 66549U 25277A   25349.95995376 -.00000334  00000+0  00000+0 0  9998",
        "tle_line2": "2 66549   5.0105 274.9060 0000937 135.1892 137.1980  1.00270828   310"
      },
      "geometry": {
        "type": "Point",
        "coordinates": [
          -23.085668598866373,
          4.4312450411479825
        ]
      }
    }
  ]
}